NORAD_CAT_ID,OBJECT_NAME,OBJECT_TYPE,EPOCH,MEAN_MOTION,ECCENTRICITY,INCLINATION,RA_OF_ASC_NODE,ARG_OF_PERICENTER,MEAN_ANOMALY,BSTAR,MEAN_MOTION_DOT,MEAN_MOTION_DDOT,TLE_LINE0,TLE_LINE1,TLE_LINE2,SEMIMAJOR_AXIS,PERIOD,APOGEE,PERIGEE,DECAYED
53250.0,STARLINK-4059,PAYLOAD,2022-12-03 15:46:02,15.0883446,0.0002787,53.2166,145.3785,53.9523,306.1727,1.0529e-05,-1.21e-06,0.0,0 STARLINK-4059,1 53250U 22086J   22337.65697173 -.00000121  00000-0  10529-4 0  9990,2 53250  53.2166 145.3785 0002787  53.9523 306.1727 15.08834460 20922,6917.897,95.438,541.69,537.8340000000002,0.0
53250.0,STARLINK-4059,PAYLOAD,2022-12-03 23:42:58,15.08834859,0.0002783,53.2177,143.8917,53.5115,306.6133,3.1578e-05,2.14e-06,0.0,0 STARLINK-4059,1 53250U 22086J   22337.98817616  .00000214  00000-0  31578-4 0  9991,2 53250  53.2177 143.8917 0002783  53.5115 306.6133 15.08834859 21179,6917.896,95.438,541.686,537.836,0.0
53250.0,STARLINK-4059,PAYLOAD,2022-12-04 17:12:12,15.0883971,0.0002745,53.2177,140.6207,55.2374,304.8876,5.2038e-05,5.400000000000002e-06,0.0,0 STARLINK-4059,1 53250U 22086J   22338.71681354  .00000540  00000-0  52038-4 0  9997,2 53250  53.2177 140.6207 0002745  55.2374 304.8876 15.08839710 21085,6917.880999999999,95.438,541.645,537.847,0.0
53250.0,STARLINK-4059,PAYLOAD,2022-12-04 20:22:58,15.0884308,0.0002719,53.2179,140.0261,54.904,305.2207,4.6577e-05,4.53e-06,0.0,0 STARLINK-4059,1 53250U 22086J   22338.84929184  .00000453  00000-0  46577-4 0  9991,2 53250  53.2179 140.0261 0002719  54.9040 305.2207 15.08843080 21301,6917.871,95.437,541.617,537.855,0.0
53250.0,STARLINK-4059,PAYLOAD,2022-12-05 04:19:54,15.08845781,0.0002647,53.218,138.5393,55.5698,304.5544,7.7148e-05,9.4e-06,0.0,0 STARLINK-4059,1 53250U 22086J   22339.18048850  .00000940  00000-0  77148-4 0  9990,2 53250  53.2180 138.5393 0002647  55.5698 304.5544 15.08845781 21358,6917.863,95.437,541.559,537.8969999999998,0.0
53250.0,STARLINK-4059,PAYLOAD,2022-12-05 17:02:59,15.08846604,0.0002685,53.2181,136.1607,55.4359,304.6886,0.0002252,3.298e-05,0.0,0 STARLINK-4059,1 53250U 22086J   22339.71040569  .00003298  00000-0  22520-3 0  9990,2 53250  53.2181 136.1607 0002685  55.4359 304.6886 15.08846604 21238,6917.86,95.437,541.5830000000002,537.868,0.0
53250.0,STARLINK-4059,PAYLOAD,2022-12-05 20:13:45,15.08850855,0.0002732,53.2169,135.5658,55.2914,304.8335,0.00030609,4.588e-05,0.0,0 STARLINK-4059,1 53250U 22086J   22339.84288756  .00004588  00000-0  30609-3 0  9996,2 53250  53.2169 135.5658 0002732  55.2914 304.8335 15.08850855 21459,6917.847,95.437,541.602,537.822,0.0
53250.0,STARLINK-4059,PAYLOAD,2022-12-06 12:07:36,15.08856774,0.0002764,53.2169,132.5921,56.5827,303.543,0.00030166,4.518e-05,0.0,0 STARLINK-4059,1 53250U 22086J   22340.50528147  .00004518  00000-0  30166-3 0  9993,2 53250  53.2169 132.5921 0002764  56.5827 303.5430 15.08856774 21550,6917.829000000002,95.436,541.606,537.7819999999998,0.0
53250.0,STARLINK-4059,PAYLOAD,2022-12-06 20:04:32,15.08844341,0.0002749,53.2174,131.1059,55.9362,304.1891,5.2048e-05,5.400000000000002e-06,0.0,0 STARLINK-4059,1 53250U 22086J   22340.83648621  .00000540  00000-0  52048-4 0  9994,2 53250  53.2174 131.1059 0002749  55.9362 304.1891 15.08844341 21604,6917.8669999999975,95.437,541.634,537.83,0.0
53250.0,STARLINK-4059,PAYLOAD,2022-12-07 11:58:24,15.08836623,0.0002582,53.2182,128.1328,54.9259,305.1975,-1.0393e-05,-4.54e-06,0.0,0 STARLINK-4059,1 53250U 22086J   22341.49889303 -.00000454  00000-0 -10393-4 0  9994,2 53250  53.2182 128.1328 0002582  54.9259 305.1975 15.08836623 21504,6917.891,95.438,541.5419999999998,537.97,0.0
53250.0,STARLINK-4059,PAYLOAD,2022-12-08 02:16:51,15.08853152,0.0002702,53.2193,125.455,59.6623,300.4636,8.814100000000001e-05,1.115e-05,0.0,0 STARLINK-4059,1 53250U 22086J   22342.09503927  .00001115  00000-0  88141-4 0  9995,2 53250  53.2193 125.4550 0002702  59.6623 300.4636 15.08853152 21591,6917.84,95.437,541.5740000000002,537.836,0.0
53250.0,STARLINK-4059,PAYLOAD,2022-12-08 11:49:10,15.088425199999998,0.000227,53.2174,123.6703,53.5801,306.5401,7.5933e-05,9.2e-06,0.0,0 STARLINK-4059,1 53250U 22086J   22342.49248202  .00000920  00000-0  75933-4 0  9999,2 53250  53.2174 123.6703 0002270  53.5801 306.5401 15.08842520 21854,6917.873000000001,95.437,541.308,538.1669999999998,0.0
53250.0,STARLINK-4059,PAYLOAD,2022-12-08 16:35:19,15.08841209,0.0002252,53.2182,122.7795,42.2284,317.8882,0.00013539,1.867e-05,0.0,0 STARLINK-4059,1 53250U 22086J   22342.69120360  .00001867  00000-0  13539-3 0  9999,2 53250  53.2182 122.7795 0002252  42.2284 317.8882 15.08841209 21686,6917.877,95.437,541.3,538.184,0.0
53250.0,STARLINK-4059,PAYLOAD,2022-12-09 02:07:32,15.08958672,0.0001271,53.2185,120.9969,322.9551,37.1354,0.0016930999999999,0.00026848,0.0,0 STARLINK-4059,1 53250U 22086J   22343.08857542  .00026848  00000-0  16931-2 0  9996,2 53250  53.2185 120.9969 0001271 322.9551  37.1354 15.08958672 21743,6917.518,95.43,540.262,538.503,0.0
53250.0,STARLINK-4059,PAYLOAD,2022-12-09 08:29:12,15.08822128,0.000211,53.2186,119.8084,18.5425,341.5644,0.00045704,6.99e-05,0.0,0 STARLINK-4059,1 53250U 22086J   22343.35361311  .00006990  00000-0  45704-3 0  9997,2 53250  53.2186 119.8084 0002110  18.5425 341.5644 15.08822128 21986,6917.935,95.439,541.26,538.34,0.0
53250.0,STARLINK-4059,PAYLOAD,2022-12-09 16:26:10,15.0875329,0.0001917,53.2195,118.3252,40.3469,319.7665,-0.0012517,-0.00020107,0.0,0 STARLINK-4059,1 53250U 22086J   22343.68484473 -.00020107  00000-0 -12517-2 0  9991,2 53250  53.2195 118.3252 0001917  40.3469 319.7665 15.08753290 21839,6918.145,95.443,541.337,538.684,0.0
53250.0,STARLINK-4059,PAYLOAD,2022-12-10 13:06:06,15.08868994,0.000189,53.2202,114.4601,23.1748,336.9329,-0.0010307,-0.00016668,0.0,0 STARLINK-4059,1 53250U 22086J   22344.54590474 -.00016668  00000-0 -10307-2 0  9998,2 53250  53.2202 114.4601 0001890  23.1748 336.9329 15.08868994 22165,6917.792,95.436,540.964,538.349,0.0
53250.0,STARLINK-4059,PAYLOAD,2022-12-10 17:52:17,15.08856795,0.0002986,53.2186,113.5673,44.2874,315.8356,0.0004796,7.356e-05,0.0,0 STARLINK-4059,1 53250U 22086J   22344.74464153  .00007356  00000-0  47960-3 0  9992,2 53250  53.2186 113.5673 0002986  44.2874 315.8356 15.08856795 21998,6917.829000000002,95.436,541.76,537.628,0.0
53250.0,STARLINK-4059,PAYLOAD,2022-12-11 12:56:54,15.08854132,0.0001681,53.2185,109.9956,356.7364,3.3617,-0.00024514,-4.189e-05,0.0,0 STARLINK-4059,1 53250U 22086J   22345.53951651 -.00004189  00000-0 -24514-3 0  9997,2 53250  53.2185 109.9956 0001681 356.7364   3.3617 15.08854132 22113,6917.837,95.437,540.865,538.539,0.0
53250.0,STARLINK-4059,PAYLOAD,2022-12-11 17:43:05,15.08833356,0.0002464,53.2179,109.1031,34.6088,325.5064,0.00016478,2.335e-05,0.0,0 STARLINK-4059,1 53250U 22086J   22345.73825426  .00002335  00000-0  16478-3 0  9998,2 53250  53.2179 109.1031 0002464  34.6088 325.5064 15.08833356 22140,6917.901,95.438,541.47,538.061,0.0
53250.0,STARLINK-4059,PAYLOAD,2022-12-12 12:47:42,15.08841555,0.0002437,53.218,105.5337,47.7946,312.3253,5.5544e-05,5.96e-06,0.0,0 STARLINK-4059,1 53250U 22086J   22346.53313068  .00000596  00000-0  55544-4 0  9996,2 53250  53.2180 105.5337 0002437  47.7946 312.3253 15.08841555 22468,6917.876,95.437,541.427,538.055,0.0
53250.0,STARLINK-4059,PAYLOAD,2022-12-12 19:09:14,15.08844834,0.0002388,53.2179,104.3442,46.4439,313.6752,0.00010881,1.444e-05,0.0,0 STARLINK-4059,1 53250U 22086J   22346.79808848  .00001444  00000-0  10881-3 0  9996,2 53250  53.2179 104.3442 0002388  46.4439 313.6752 15.08844834 22504,6917.866,95.437,541.383,538.0790000000002,0.0
53250.0,STARLINK-4059,PAYLOAD,2022-12-13 01:30:47,15.0883897,0.0002324,53.2181,103.1547,49.5159,310.6036,8.6559e-06,-1.51e-06,0.0,0 STARLINK-4059,1 53250U 22086J   22347.06305204 -.00000151  00000-0  86559-5 0  9997,2 53250  53.2181 103.1547 0002324  49.5159 310.6036 15.08838970 22341,6917.884,95.438,541.356,538.141,0.0
53250.0,STARLINK-4059,PAYLOAD,2022-12-13 11:03:06,15.08844107,0.0002172,53.2191,101.3709,46.627,313.4903,6.4334e-05,7.36e-06,0.0,0 STARLINK-4059,1 53250U 22086J   22347.46048921  .00000736  00000-0  64334-4 0  9995,2 53250  53.2191 101.3709 0002172  46.6270 313.4903 15.08844107 22607,6917.868,95.437,541.235,538.23,0.0
53250.0,STARLINK-4059,PAYLOAD,2022-12-13 17:24:38,15.08842953,0.0002212,53.2188,100.1815,44.8536,315.2635,5.9274e-05,6.55e-06,0.0,0 STARLINK-4059,1 53250U 22086J   22347.72544983  .00000655  00000-0  59274-4 0  9990,2 53250  53.2188 100.1815 0002212  44.8536 315.2635 15.08842953 22641,6917.871,95.437,541.2669999999998,538.206,0.0
53250.0,STARLINK-4059,PAYLOAD,2022-12-14 07:43:06,15.08843895,0.000213,53.2191,97.5049,46.4876,313.6293,0.0001523,2.137e-05,0.0,0 STARLINK-4059,1 53250U 22086J   22348.32160879  .00002137  00000-0  15230-3 0  9995,2 53250  53.2191  97.5049 0002130  46.4876 313.6293 15.08843895 22533,6917.868,95.437,541.207,538.26,0.0
53250.0,STARLINK-4059,PAYLOAD,2022-12-14 14:04:39,15.08836717,0.0002218,53.2163,96.3146,31.0056,329.1067,6.2552e-06,-1.89e-06,0.0,0 STARLINK-4059,1 53250U 22086J   22348.58657260 -.00000189  00000-0  62552-5 0  9995,2 53250  53.2163  96.3146 0002218  31.0056 329.1067 15.08836717 22776,6917.89,95.438,541.29,538.221,0.0
53250.0,STARLINK-4059,PAYLOAD,2022-12-14 15:40:03,15.08832187,0.0002327,53.2163,96.0187,38.6919,321.4240000000001,-2.5806e-05,-6.99e-06,0.0,0 STARLINK-4059,1 53250U 22086J   22348.65281563 -.00000699  00000-0 -25806-4 0  9999,2 53250  53.2163  96.0187 0002327  38.6919 321.4240 15.08832187 22584,6917.904,95.438,541.379,538.159,0.0
53250.0,STARLINK-4059,PAYLOAD,2022-12-15 13:55:26,15.08852817,0.0002481,53.2157,91.8556,40.8229,319.2949,0.00038341,5.821e-05,0.0,0 STARLINK-4059,1 53250U 22086J   22349.58017035  .00005821  00000-0  38341-3 0  9990,2 53250  53.2157  91.8556 0002481  40.8229 319.2949 15.08852817 22729,6917.840999999999,95.437,541.423,537.99,0.0
